#dP2023  2  1  0  0  0.00000000     289   u+U IGS20 FIT  WHU
## 2247 259200.00000000   300.00000000 59976 0.0000000000000
+  114   G02G03G04G05G06G07G08G09G10G11G12G13G14G15G16G17G18
+        G19G20G21G23G24G25G26G27G29G30G31G32R01R02R03R04R05
+        R07R08R09R11R12R13R14R15R16R17R18R19R20R21R22E01E02
+        E03E04E05E07E08E09E10E11E12E15E19E21E24E25E26E27E30
+        E31E33E34E36C01C02C03C04C05C06C07C08C09C10C11C12C13
+        C14C16C19C20C21C22C23C24C25C26C27C28C29C30C32C33C34
+        C35C36C37C38C39C40C41C42C43C44C45C46  0  0  0  0  0
++         5  3  4  4  3  3  5  4  3  4  4  3  4  4  5  4  4
++         4  4  4  5  3  5  5  4  4  3  3  6  7  3  5  5  5
++         5  4  5  5  5  5  5  4  6  5  5  4  4  4  4  3  4
++         4  4  5  2  4  4  4  5  5  4  5  5  4  5  4  4  3
++         4  4  2  3  9  9 10 10 10  6  5  7  6  5  7  7  7
++         7  6  5  5  4  4  3  3  5  5  5  6  6  5  5  6  5
++         5  5  5  7  5  7  7  4  6  5  4  5  0  0  0  0  0
%c M  cc GPS ccc cccc cccc cccc cccc ccccc ccccc ccccc ccccc
%c cc cc ccc ccc cccc cccc cccc cccc ccccc ccccc ccccc ccccc
%f  1.2500000  1.025000000  0.00000000000  0.000000000000000
%f  0.0000000  0.000000000  0.00000000000  0.000000000000000
%i    0    0    0    0      0      0      0      0         0
%i    0    0    0    0      0      0      0      0         0
/* PCV:igs20_2272 OL/AL:FES2014b NONE     YN ORB:CoN CLK:CoN
*  2023  2  1  6  0  0.00000000
PG02  -1952.405854 -15903.713767  21847.371483   -623.757854
PG03   7600.301923  19757.903865 -16233.342016   -367.799835
PG04    261.920123  25665.661076   6610.770861    -36.948415
PG05   7508.687362 -13102.061195  21674.944965   -114.187556
PG06  25079.085451  -4750.385513  -7441.445124    566.822506
PG07  13411.759996  10646.036496  20844.778130    249.047170
PG08  -6553.209893  24937.770721   5389.705758   -106.352809
PG09   8832.802593  19529.094116  15579.776513   -226.344536
PG10 -22982.624134  -9961.432406  -9120.837878    -22.824503
PG11  22871.290817 -12200.478183   5720.295457    -92.654191
PG12  -4604.168971 -20024.012418 -17166.237045   -334.973331
PG13  13135.198996 -20376.518772  10445.058925    468.869655
PG14  22590.593094  12196.232104  -7056.407439    -37.281798
PG15   3321.828370 -25730.269739   4507.519370      9.576859
PG16 -11502.371230   9695.789086  21612.251653   -521.900331
PG17  13463.882040   6678.416763 -21455.879101    697.186439
PG18 -16108.592777  -8053.532043  19574.162240   -122.285352
PG19  15825.060957  -4947.235556 -20914.640751    271.759174
PG20  17466.693137  -6126.673382  19002.535777    453.482536
PG21 -10353.301594  17700.102002 -15822.169424    153.770626
PG23 -20724.583686 -16641.671268   1788.830591      4.391842
PG24   5378.449200 -18287.270866 -18676.882423    -54.806500
PG25 -14030.793430 -20183.255224 -10722.369943    416.300989
PG26 -21034.624153    289.152554  16299.264201    241.056158
PG27 -12523.206187  17836.491307  14654.276815    113.062001
PG29  -4838.893796 -22042.373933  13895.369450   -583.658095
PG30  22887.171739   1782.326034  13669.820553   -531.691174
PG31 -25645.013807   5471.146329  -5719.179588   -207.977225
PG32 -14876.976804  -3118.656335 -21623.535160   -382.346374
PR01  11140.381845  21346.134639   8438.666610     22.255621
PR02  12201.778418   5646.601119  21706.795078    -23.319733
PR03   6598.202298 -12826.870171  21100.401724     71.717411
PR04  -2526.128632 -23775.064147   8941.949275    174.144166
PR05 -10197.987364 -21934.298747  -8128.341383    107.051765
PR07  -6220.619425  13465.817137 -20696.423454     49.067682
PR08   2755.968947  23806.321489  -8631.194393    -69.288250
PR09 -24988.762413  -3668.503127   3295.706758    101.682591
PR11   -499.344079  11067.341007  22981.831673      0.538538
PR12  18239.687927  11123.513059  13938.689663     24.721762
PR13  25005.552325   4775.402653  -1576.002000    -31.532487
PR14  17079.618981  -5179.674688 -18225.755935     24.317073
PR15   -579.132342 -11402.744123 -22798.330314     91.373108
PR16 -18090.333605 -10947.408061 -14245.372313     10.713951
PR17  18437.991578 -17376.477009  -2795.303961    600.900528
PR18  10251.580339 -19137.346370  13458.049826     64.611633
PR19  -1918.664743 -12001.632614  22431.223450   -220.286671
PR20 -16668.084610   4501.104409  18769.913674    -86.897151
PR21 -18126.491941  17928.700661   1113.138820   -369.886045
PR22 -10145.793654  18735.518816 -13981.881620     69.109597
PE01  25228.802729  15266.595299  -2494.771961   -599.542228
PE02 -25349.275465 -15036.190255   2871.022922     18.139367
PE03 -15101.922543 -11658.790963 -22633.169180   -645.608397
PE04  16432.522801 -10548.614474  22251.859206    -48.617851
PE05  -4841.300615 -27548.067043  -9690.512523    -99.643099
PE07  -8140.863274  27068.812751  -8789.070994    -19.553426
PE08 -16300.196242  10454.105686 -22389.668014    -28.819176
PE09   8152.068458 -26986.322968   9011.264957   -820.365349
PE10  23945.436334 -16256.256605   6207.712941   -509.191367
PE11  16188.325952 -19203.196213  15675.400452    702.805080
PE12  27312.647407 -10958.882367  -3282.261750   -405.594684
PE15 -27319.489347  10783.653339   3652.193752    690.313867
PE19  14000.349152  14504.156908  21677.437204  -3344.603354
PE21  14384.362392  21607.749426  14209.533051   -509.578587
PE24   6492.535722 -15763.216050 -24219.924397  -1089.630993
PE25 -14112.240146 -21635.462908 -14467.220667   -598.425159
PE26   4180.997039  15861.196820 -24628.833136      5.362833
PE27  -5568.142930  16210.689901  24127.057853   -501.539103
PE30 -22433.424646    677.421983  19295.186833  -1206.595970
PE31  22014.825618  -1338.932216 -19735.402485   -514.839644
PE33  21501.469266   3781.485640 -19984.750509   -452.998340
PE34 -21614.681685  -3632.417580  19896.930055    -27.789949
PE36  -3223.651261 -16089.135524  24645.054995     -5.810345
PC01 -34320.792387  24502.609036  -1025.737904    914.681154
PC02   4457.102082  41905.819935   -755.983078   -379.440721
PC03 -14681.191211  39500.505526  -1390.948419    155.970163
PC04 -39664.686575  14348.572655   -391.977816    -10.699155
PC05  21956.409483  35997.411755   -729.805145    256.770232
PC06 -18224.081109  34955.277703  14577.914986   -189.193000
PC07  -2938.050169  36585.592013  20926.464862    178.245943
PC08  -7263.423354  19609.817507 -36605.625811    527.569332
PC09 -11384.737304  33740.507459  22540.943014    495.015945
PC10   2535.801578  39077.091231  16555.209231     20.669066
PC11  17540.713887   -249.851211 -21627.073717   -145.571870
PC12   5657.500148  16895.426090 -21435.375980    428.208550
PC13  -1483.021967  22035.179474 -35739.794874    197.183697
PC14  18919.389519   9639.453595  18154.407297    430.223928
PC16 -19064.373393  34905.139610  13737.638727     69.388742
PC19 -16700.357335    755.642139 -22314.986056   -895.180005
PC20 -18241.228258 -16997.561686 -12493.925671    743.269419
PC21   8846.636534  25867.138514  -5633.634526   -913.135031
PC22  -5467.574915  18965.059622 -19734.913396   -655.889231
PC23  15788.986177 -12900.396870 -19055.118524   -874.270819
PC24  22460.656193  10468.894537  12783.191114   -467.394117
PC25  27158.347885  -3160.376792  -5537.809174     64.721223
PC26   6426.118426  15980.748648  21930.816376    -72.462366
PC27   1163.782953 -22437.186585  16545.371601     90.136863
PC28  14600.881357 -23737.675955   1473.960637     65.419684
PC29 -19923.913680  11203.777254  16001.037449     75.117026
PC30 -13314.339224  -8793.735852  22889.869701      1.230150
PC32  -8953.317114 -25796.115961   5756.526303   -633.936598
PC33  16781.880847   -746.504908  22292.192344   -876.021450
PC34  14132.479723   7541.480686 -22859.396848     96.314197
PC35 -14474.965309  23831.275754   -229.552500    688.011238
PC36 -27403.913288   2066.929145   4897.058404   -655.246165
PC37  -4497.869351 -16253.920094 -22232.791616   -832.053342
PC38 -16840.655041  19337.101386 -33452.066106     55.795174
PC39 -22522.971940  34987.976083   6021.679742     -1.647343
PC40  -6564.711611  33566.029777  24790.129584    -13.981347
PC41   5940.340573 -18515.370261  20069.507302   -559.857708
PC42  18062.364824  17960.381258  11465.683073   -862.159970
PC43  20001.434977 -10361.077401 -16495.678918      4.945173
PC44   -371.110302  22583.012529 -16375.700745      1.438190
PC45 -15431.417266  12939.668564  19320.490189    -54.819691
PC46 -23674.221515  -9479.315739 -11392.617191    -30.376376
EOF
